FLOCK 4BE-3             
1 60561U 24149CX  26189.75755137  .00013087  00000+0  30637-3 0  9994
2 60561  97.3687 273.8856 0004443 188.5262 171.5911 15.42239472105668
FLOCK 4BE-19            
1 60563U 24149CZ  26189.76043748  .00018083  00000+0  37934-3 0  9993
2 60563  97.3740 275.5359 0005363 194.5146 165.5950 15.45427253105752
FLOCK 4G-8              
1 62613U 25009E   26189.73388509  .00006995  00000+0  24229-3 0  9993
2 62613  97.4002 271.6529 0003383 216.9456 143.1552 15.30160464 82218
FLOCK 4G-13             
1 62621U 25009N   26189.76543502  .00070733  00000+0  13376-2 0  9992
2 62621  97.3941 273.4674 0005968 214.3648 145.7217 15.48143340 82337
FLOCK 4G-9              
1 62622U 25009P   26189.81477270  .00005746  00000+0  21029-3 0  9994
2 62622  97.3954 270.6089 0003486 231.9391 128.1535 15.28435310 82162
FLOCK 4G-7              
1 62624U 25009R   26189.78173525  .00007691  00000+0  26952-3 0  9999
2 62624  97.3939 270.9809 0001897 204.9279 155.1870 15.29747347 82203
FLOCK 4G-12             
1 62625U 25009S   26189.77666466  .00008081  00000+0  28359-3 0  9997
2 62625  97.4018 271.5199 0003483 212.1963 147.9066 15.29682362 82207
FLOCK 4G-11             
1 62629U 25009W   26189.76198440  .00008158  00000+0  28533-3 0  9991
2 62629  97.3920 271.0709 0001987 207.6247 152.4888 15.29791119 82210
FLOCK 4G-26             
1 62633U 25009AA  26189.18771428  .00007768  00000+0  27038-3 0  9990
2 62633  97.4011 271.0916 0002946 201.6977 158.4139 15.29962849 82122
FLOCK 4G-28             
1 62634U 25009AB  26189.50311285  .00006326  00000+0  18752-3 0  9990
2 62634  97.4020 274.1370 0001519 176.1511 183.9744 15.35202688 82351
FLOCK 4G-20             
1 62636U 25009AD  26189.76528097  .00123188  00000+0  15533-2 0  9990
2 62636  97.3844 274.9330 0005915 220.5549 139.5267 15.59166741 82474
FLOCK 4G-24             
1 62637U 25009AE  26189.78887569  .00006518  00000+0  22509-3 0  9994
2 62637  97.4019 271.9918 0003043 184.7404 175.3808 15.30282835 82235
FLOCK 4G-3              
1 62639U 25009AG  26189.77998570  .00007693  00000+0  26929-3 0  9995
2 62639  97.4022 271.6959 0002562 189.3147 170.8047 15.29783248 82207
FLOCK 4G-27             
1 62641U 25009AJ  26189.79930082  .00007204  00000+0  25278-3 0  9998
2 62641  97.3929 271.0714 0001913 188.3351 171.7858 15.29727342 82206
FLOCK 4G-29             
1 62642U 25009AK  26189.45783226  .00005662  00000+0  19894-3 0  9991
2 62642  97.4015 271.3353 0002755 186.2861 173.8345 15.29782544 82157
FLOCK 4G-22             
1 62645U 25009AN  26189.80295019  .00006898  00000+0  24243-3 0  9997
2 62645  97.4003 271.7150 0002312 179.0266 181.0979 15.29689068 82223
